#dP2022 11  1  0  0  0.00000000      96 __u+U ITR14 FIT  IAC
## 2234 172800.00000000   900.00000000 59884 0.0000000000000
+  127   C01C02C03C04C05C06C07C08C09C10C11C12C13C14C16C19C20
+        C21C22C23C24C25C26C27C28C29C30C32C33C34C35C36C37C38
+        C39C40C41C42C43C44C45C46C60E01E03E04E05E07E08E09E10
+        E11E12E13E14E15E18E19E21E24E25E26E27E30E31E33E34E36
+        G01G02G03G04G05G06G07G08G09G10G11G12G13G14G15G16G17
+        G18G19G20G21G22G23G24G25G26G27G28G29G30G31G32J02J03
+        J04J07R01R02R03R04R05R06R07R08R09R10R11R12R13R14R15
+        R17R18R19R20R21R22R23R24  0  0  0  0  0  0  0  0  0
++        17 16 17 17 16  9  9  9  9  9  9  8  9  8  9  7  7
++         7  7  7  7  7  7  7  7  7  7  7  7  7  7  8  7  8
++         8  8  7  7  7  7  7  7 17  4  4  4  4  4  4  4  5
++         5  4  4  5  4  4  4  4  4  5  4  4  4  4  5  4  4
++         4  4  4  4  4  4  4  4  4  4  4  4  4  4  4  4  4
++         4  4  4  4  4  3  4  4  6  4  4  4  4  4  4  8  8
++         9 19  7  6  6  6  6  0  6  6  6 15  6  6  7  6  6
++         6  6  7  7  6  8 15  6  0  0  0  0  0  0  0  0  0
%c M  cc GPS ccc cccc cccc cccc cccc ccccc ccccc ccccc ccccc
%c cc cc ccc ccc cccc cccc cccc cccc ccccc ccccc ccccc ccccc
%f  0.0000000  0.000000000  0.00000000000  0.000000000000000
%f  0.0000000  0.000000000  0.00000000000  0.000000000000000
%i    0    0    0    0      0      0      0      0         0
%i    0    0    0    0      0      0      0      0         0
/* INFORMATION & ANALYSIS CENTER (IAC)            RAPID DATA
/* S/V CLOCKS ARE ALIGNED TO GNSS TIME                      
/* G:C1WC2W R:C1PC2P E:C1XC5X C:C2IC6I J:C1CC2S             
/* PCV:IGS14_2218 OL/AL:FES2004  NONE     YN ORB:CoN CLK:CoN
*  2022 11 01  8  0  0.00000000
PC01 -34381.871255  24407.841162   -614.207943    836.159847
PC02   4576.216895  41981.728926    275.058512    523.422020
PC03 -14783.482822  39516.573207   -464.319777   -217.969006
PC04 -39655.290013  14360.113597   -570.913920    138.907918
PC05  21897.833798  36070.380438    707.121876    -34.354339
PC06  -7432.497509  23541.558551  34184.000448     11.626416
PC07 -16874.282389  37136.762702 -10939.846279    276.098735
PC08  -1333.110282  36101.409111 -21579.879006    504.877473
PC09   4069.953875  26110.376747  33326.257658   -818.924774
PC10 -10641.804403  37323.997822 -16765.541275     75.202963
PC11  27467.533173   4717.916970   -897.053313   -318.046324
PC12  17478.428361  13658.522027 -16875.975484    282.931640
PC13   5092.927504  39530.336912 -13177.381693    121.894219
PC14  18946.392900  -2003.070210  20383.374046    615.968696
PC16 -12774.311071  21386.543693  34169.466641    122.595204
PC19 -20886.149981  11621.337765 -14397.689429   -920.405615
PC20 -14961.187656  -5999.078440 -22778.348639    849.764430
PC21   -491.836129  21324.075635  18008.461240   -726.466191
PC22 -15090.806593  23332.080333   2672.195116   -818.437458
PC23   6434.955522 -19517.399207 -18878.040187   -835.768739
PC24  17188.943041  18488.279666 -11869.629493   -867.805277
PC25  16555.783112  -2341.404118 -22347.016754     18.113023
PC26   8976.020918  26134.879800   3729.488904    -29.641726
PC27  -8492.028015 -15966.699951  21234.450580     44.652625
PC28  11840.666254 -13425.073166  21412.511560     30.895507
PC29 -26380.175477   3465.120384  -8424.939874     34.548081
PC30 -24538.137588  -9049.442397   9707.273753      0.785998
PC32    404.706666 -21373.308805 -17930.294890   -735.670198
PC33  20825.191474 -11613.388129  14487.121216   -921.708285
PC34  25155.553486   8456.773551  -8663.422131     29.480352
PC35 -12952.507989  13364.745437 -20790.163156     68.116595
PC36 -16836.055278   1236.863636  22245.310218   -875.224753
PC37  -7475.535448 -26436.664522  -4967.311814   -694.302386
PC38  -7290.756941  31933.095223 -26428.027149     35.066753
PC39 -17236.436420  20144.998337  32757.840997     -0.764720
PC40 -24509.675568  33267.635998  -8915.633424     -7.192340
PC41  15356.852369 -23207.698397  -2070.535724   -230.608038
PC42  14245.274583   7240.014184  22912.119995   -580.739022
PC43  26675.651601  -2913.646848   7686.582259     22.638663
PC44   8849.947036  15818.468884 -21233.361212     99.814419
PC45  -6100.836525  19724.429904  18762.479595    -16.912937
PC46 -17590.894057 -17111.378763  13327.136721    -10.078355
PC60   7270.380964  41507.589874  -1298.187609     -0.987948
PE01 -15264.825744  -8646.700790  23848.449445   -557.506801
PE03  25236.980761   1194.673412  15406.025981   -615.555700
PE04 -26680.436358  12666.638157   1948.084855  -1149.032940
PE05   8916.470694  14678.984560  24103.222567   -128.958991
PE07  12312.380882 -19408.702471 -18651.767851   -717.897971
PE08  26638.970251 -12743.841275  -1985.581358   -624.990130
PE09 -12523.489933  19328.783467  18594.351772   -713.524586
PE10 -11332.824562  11477.950578 -24824.438556   -487.707560
PE11   -874.881884  18262.212046 -23286.566513   1529.305613
PE12 -19201.706316   3548.388275 -22243.680064   -253.224681
PE13   1685.607701 -17763.774450  23623.057917    430.661063
PE14 -26435.938226  14966.812721  -9372.842339     44.078773
PE15  19334.357831  -3308.779248  22172.697360    710.327851
PE18  23105.613190  -7559.971956   2252.938709   -794.593901
PE19 -23754.581811  -3211.625813 -17363.768207  -4113.463152
PE21  -6514.106193 -25141.966441  14210.826091   -492.069244
PE24  -7350.008985  28190.175701   5152.791873   -922.959262
PE25   6314.639525  25318.430489 -13954.593701   -591.610928
PE26 -17342.550122 -21634.855780  10384.371748  -1793.861286
PE27   6625.720459 -28545.044929  -4224.904968   -429.030350
PE30  16035.660948 -14255.593874 -20403.102705   -962.744092
PE31 -15750.674822  15090.345243  20017.544727   -507.097102
PE33 -25463.022415 -13020.744236  -7633.945509   -455.237286
PE34  25490.851385  12840.111427   7805.806367    -12.368831
PE36  16771.957792  21658.573537 -11207.724329   -454.334690
PG01  21736.892884  13495.929668   7446.322414    258.514777
PG02 -22715.328323 -11052.660149  -7305.217314   -639.871990
PG03  12996.346753   8556.834988  21417.433608   -369.782476
PG04  23218.694311   2575.724309  12736.853218    -94.060677
PG05  -7740.142777 -20033.852146 -15720.841532   -102.596840
PG06   1852.672534 -16694.133507  20617.482141    506.956424
PG07  19292.625906    118.675321 -18039.434859    292.595797
PG08  15728.251110   8972.058601 -19592.138031    -91.663294
PG09  25495.933553  -7145.037696   2300.753277   -275.136069
PG10 -11331.196678  21668.298312  -9813.384921     -9.995384
PG11  -8667.063993 -21475.762012  13043.349679    -33.224117
PG12 -12266.575472  -9951.274986  21102.476320   -299.020568
PG13  -7222.073541 -13837.516577 -21685.312257    416.615301
PG14  13330.348855 -19878.935524 -11383.229736    -88.639316
PG15 -16930.951566  -7907.657256 -19419.319246    -16.120324
PG16   1535.902596  23476.292352 -12139.024031   -526.775060
PG17  20347.193199 -13173.765553  11378.970196    674.027076
PG18 -17817.201495   1676.602989 -19675.414919     -5.839757
PG19  11034.902316 -15120.773304  18504.425696    231.467647
PG20  -1107.802137 -26462.227777  -3248.708017    473.710051
PG21  21260.246104  16566.340356   -449.287350    156.958006
PG22  -7533.445765  16152.161959  20060.204939    356.310215
PG23 -14823.719011  12635.317219 -18001.020181     -1.148970
PG24 -22323.580588 -14508.303887   2645.084757     77.220997
PG25 -15664.791231   2736.847591  20936.949127    388.218200
PG26  -3319.154434  26159.475874   -784.214353    234.422575
PG27   3497.927285  14731.616961 -22024.797269    187.401640
PG28  -7298.871786  25251.934524   1856.922400      5.401074
PG29 -26066.600737   3746.549342   3738.201819   -563.980670
PG30  11015.409296 -11205.421279 -21325.748881   -537.025100
PG31  -1405.294691  17642.565586  19505.327192   -198.732945
PG32 -17235.453966  15414.694213  13038.236703   -281.739551
PJ02 -28415.695183  27336.913735  19769.935488     -8.667851
PJ03 -28842.504015  16161.309327 -21533.934041     -3.831096
PJ04 -24130.629023  33634.909547  -3261.877378    112.394734
PJ07 -25369.133053  33672.223713     48.684967      0.004182
PR01 -19843.751207  12992.770690  -9399.696985     17.150806
PR02 -13987.362379  18938.352944   9762.673346    -23.178402
PR03    366.779689  13598.081759  21601.093126     66.496356
PR04  13989.293079    717.447646  21342.634987    163.290096
PR05  20206.791035 -12447.173836   9394.609358    102.183388
PR06  12626.508276 -19466.584711 -10647.013990 999999.999999
PR07   -905.451047 -13201.980000 -21786.997390     43.536179
PR08 -14115.276386   -618.368723 -21179.053466    -67.886233
PR09   1507.403932 -21490.564319 -13580.222479     85.164297
PR10  -6748.928794 -24594.984257   1512.924625    -87.386490
PR11 -12005.544207 -13958.275553  17659.689225     22.717515
PR12  -9811.272183   5956.287206  22804.741521     22.487689
PR13  -2315.852708  20562.488677  14900.840478    -28.395310
PR14   7360.631161  24220.526890  -3193.079019     24.173458
PR15  12028.135070  13147.840969 -18231.348993     92.905694
PR17  12498.009650  12651.831367 -18252.413773    574.185962
PR18  23420.018599   9422.832952  -3793.055010     49.853988
PR19  22591.417840   2617.395425  11543.495805   -209.387211
PR20   6938.797797  -8384.244703  23084.199613    -81.325133
PR21 -13969.643074 -12652.366588  17210.684903   -346.174899
PR22 -23212.909150 -10112.306564   3090.839642     15.201724
PR23 -20024.025900    770.758120 -15789.431730    -60.512356
PR24  -6141.758515   9290.824830 -22928.692515    123.811959
EOF
